STARLINK-3539           
1 51853U 22022B   24133.17943218  .00001067  00000+0  85101-4 0  9990
2 51853  53.2136 130.8130 0001369 109.4435 250.6705 15.08842238122343
